GPS BIIR-2  (PRN 13)    
1 24876U 97035A   18030.91864449  .00000060  00000-0  00000+0 0  9993
2 24876  55.5088 218.1555 0034660  93.6958 266.7129  2.00565101150397
GPS BIIR-3  (PRN 11)    
1 25933U 99055A   18031.57041365 -.00000042  00000-0  00000+0 0  9990
2 25933  51.7929  67.6479 0165155  99.7182 295.6617  2.00553132134224
GPS BIIR-4  (PRN 20)    
1 26360U 00025A   18031.47269280 -.00000019  00000-0  00000+0 0  9995
2 26360  53.1648 145.3661 0042881 102.5039 324.1214  2.00550474129911
GPS BIIR-5  (PRN 28)    
1 26407U 00040A   18031.30855397 -.00000073  00000-0  00000+0 0  9996
2 26407  56.5469 336.2454 0200548 272.2724 322.9301  2.00564179128586
GPS BIIR-6  (PRN 14)    
1 26605U 00071A   18031.43229414  .00000050  00000-0  00000+0 0  9993
2 26605  55.0814 215.7794 0095133 248.4017 341.9228  2.00556306126191
GPS BIIR-7  (PRN 18)    
1 26690U 01004A   18031.47304052 -.00000018  00000-0  00000+0 0  9995
2 26690  53.0832 148.2878 0186900 259.5522 117.1630  2.00565397124595
GPS BIIR-8  (PRN 16)    
1 27663U 03005A   18031.09974907 -.00000073  00000-0  00000+0 0  9990
2 27663  56.6131 336.0052 0096966  25.2668 175.1744  2.00575235109954
GPS BIIR-9  (PRN 21)    
1 27704U 03010A   18031.47073237 -.00000027  00000-0  00000+0 0  9999
2 27704  54.0022  88.7507 0245743 268.3806 165.2831  2.00551707108752
GPS BIIR-10 (PRN 22)    
1 28129U 03058A   18031.11153414 -.00000019  00000-0  00000+0 0  9991
2 28129  52.9764 148.2678 0074731 267.2251  91.8904  2.00571041103443
GPS BIIR-11 (PRN 19)    
1 28190U 04009A   18031.38262278 -.00000053  00000-0  00000+0 0  9992
2 28190  56.1173  36.8966 0095010  63.3309 134.3611  2.00561048101627
GPS BIIR-12 (PRN 23)    
1 28361U 04023A   18031.26141486  .00000046  00000-0  00000+0 0  9993
2 28361  54.0766 210.6662 0121002 223.2222 159.9523  2.00571204 99715
GPS BIIR-13 (PRN 02)    
1 28474U 04045A   18031.33811285 -.00000026  00000-0  00000+0 0  9990
2 28474  54.3750  88.3167 0179228 251.2302 190.6723  2.00563610 97072
GPS BIIRM-1 (PRN 17)    
1 28874U 05038A   18031.26396418 -.00000054  00000-0  00000+0 0  9996
2 28874  56.2646  34.1942 0125795 257.2035 234.9406  2.00554548 90477
GPS BIIRM-2 (PRN 31)    
1 29486U 06042A   18031.37681628  .00000025  00000-0  00000+0 0  9991
2 29486  55.2573 273.1514 0088694 349.1050 147.0584  2.00571955 83192
GPS BIIRM-3 (PRN 12)    
1 29601U 06052A   18031.13338922 -.00000072  00000-0  00000+0 0  9994
2 29601  56.5876 334.9216 0067013  51.2907 309.3059  2.00566427 82108
GPS BIIRM-4 (PRN 15)    
1 32260U 07047A   18031.44636029  .00000039  00000-0  00000+0 0  9999
2 32260  53.2016 206.8033 0100081  37.0434 323.6262  2.00561694 75497
GPS BIIRM-5 (PRN 29)    
1 32384U 07062A   18031.46260904 -.00000055  00000-0  00000+0 0  9999
2 32384  56.3350  34.7847 0003595  13.1573 134.1479  2.00555787 74222
GPS BIIRM-6 (PRN 07)    
1 32711U 08012A   18030.86140323  .00000029  00000-0  00000+0 0  9994
2 32711  54.9891 272.4839 0112581 215.1438 144.1877  2.00560856 72394
GPS BIIRM-8 (PRN 05)    
1 35752U 09043A   18031.40245146 -.00000015  00000-0  00000+0 0  9993
2 35752  54.2904 150.2614 0051523  33.9983  26.6336  2.00567689 61992
GPS BIIF-1  (PRN 25)    
1 36585U 10022A   18031.03965050 -.00000070  00000-0  00000+0 0  9990
2 36585  55.8840 331.5840 0069284  44.9394 216.2534  2.00561530 56225
GPS BIIF-2  (PRN 01)    
1 37753U 11036A   18031.49753611 -.00000022  00000-0  00000+0 0  9999
2 37753  55.5766  91.6718 0071564  33.7298 285.0546  2.00563409 47929
GPS BIIF-3  (PRN 24)    
1 38833U 12053A   18031.04434412  .00000031  00000-0  00000+0 0  9994
2 38833  54.0182 269.1688 0066314  27.9156 332.5182  2.00564847 38985
GPS BIIF-4  (PRN 27)    
1 39166U 13023A   18030.89856242 -.00000055  00000-0  00000+0 0  9990
2 39166  55.9662  31.1497 0053478  17.7687 342.4416  2.00563290 34512
GPS BIIF-5  (PRN 30)    
1 39533U 14008A   18030.89522474  .00000024  00000-0  00000+0 0  9994
2 39533  54.1668 274.5047 0030720 185.8699 174.1720  2.00574568 28876
GPS BIIF-6  (PRN 06)    
1 39741U 14026A   18031.18367580 -.00000022  00000-0  00000+0 0  9992
2 39741  55.5613  91.2068 0012714 284.9050  75.0237  2.00576484 27166
GPS BIIF-7  (PRN 09)    
1 40105U 14045A   18031.27262240  .00000047  00000-0  00000+0 0  9992
2 40105  54.6015 210.6962 0009445 102.5076 257.5914  2.00561321 25619
GPS BIIF-8  (PRN 03)    
1 40294U 14068A   18031.13999746 -.00000014  00000-0  00000+0 0  9994
2 40294  55.0405 151.4307 0010853  19.4238 340.5840  2.00575688 23836
GPS BIIF-9  (PRN 26)    
1 40534U 15013A   18029.78432622 -.00000070  00000-0  00000+0 0  9997
2 40534  54.8309 330.4976 0026240 354.5186   5.4566  2.00571865 20872
GPS BIIF-10  (PRN 08)   
1 40730U 15033A   18031.44190154 -.00000061  00000-0  00000+0 0  9994
2 40730  55.4984  30.6961 0034061 323.9651  35.8260  2.00554164 18661
GPS BIIF-11  (PRN 10)   
1 41019U 15062A   18030.99284641 -.00000015  00000-0  00000+0 0  9990
2 41019  55.0471 151.2344 0032994 200.9121 158.9201  2.00563970 16477
GPS BIIF-12  (PRN 32)   
1 41328U 16007A   18031.08158166  .00000050  00000-0  00000+0 0  9994
2 41328  54.8546 210.9561 0017466 212.2530 147.6355  2.00568323 14538
